STARLINK-37886          
1 69943U 26157A   26197.83335647 -.02120695  00000+0 -10035-1 0  9992
2 69943  53.1598 287.6393 0001018  36.8568  21.4584 15.85506185  2413
STARLINK-37937          
1 69944U 26157B   26197.83335647 -.00700046  00000+0 -31090-2 0  9990
2 69944  53.1597 287.6359 0001207  57.5533   2.2977 15.85312413  2419
STARLINK-37903          
1 69945U 26157C   26197.83335647 -.02117432  00000+0 -97354-2 0  9999
2 69945  53.1597 287.6155 0001072  39.8588  29.8489 15.86083364  2411
STARLINK-37905          
1 69946U 26157D   26197.83335647 -.02110772  00000+0 -93171-2 0  9993
2 69946  53.1596 287.5826 0001092  46.1034  39.3829 15.86893344  2415
STARLINK-37904          
1 69947U 26157E   26197.83335647 -.02101167  00000+0 -91754-2 0  9997
2 69947  53.1596 287.5767 0001069  43.1750  45.1900 15.87093763  2419
STARLINK-37891          
1 69948U 26157F   26197.83335647 -.02115904  00000+0 -92121-2 0  9991
2 69948  53.1595 287.5684 0001033  50.7037  41.6524 15.87178008  2419
STARLINK-37923          
1 69949U 26157G   26197.83335647 -.02130892  00000+0 -89789-2 0  9991
2 69949  53.1595 287.5398 0001155  49.6456  56.5032 15.87851698  2411
STARLINK-37895          
1 69950U 26157H   26197.83335647 -.02128192  00000+0 -88436-2 0  9991
2 69950  53.1595 287.5272 0001191  56.3136  55.8255 15.88122742  2415
STARLINK-37841          
1 69951U 26157J   26197.83335647 -.02133775  00000+0 -86756-2 0  9998
2 69951  53.1594 287.5101 0001138  54.2824  66.1559 15.88562514  2415
STARLINK-37899          
1 69952U 26157K   26197.83335647 -.02135217  00000+0 -84904-2 0  9995
2 69952  53.1592 287.4910 0001158  60.1329  69.4483 15.89001542  2411
STARLINK-37900          
1 69953U 26157L   26197.83335647 -.02124796  00000+0 -83750-2 0  9994
2 69953  53.1594 287.4854 0001152  56.9787  75.3266 15.89157475  2418
STARLINK-37882          
1 69954U 26157M   26197.83335647 -.02109635  00000+0 -81234-2 0  9995
2 69954  53.1594 287.4688 0001250  52.0722  88.1176 15.89587942  2417
STARLINK-37928          
1 69955U 26157N   26197.83335647 -.02133891  00000+0 -82685-2 0  9998
2 69955  53.1593 287.4659 0001227  57.6013  84.1308 15.89503754  2415
STARLINK-37824          
1 69956U 26157P   26197.83335647 -.02115026  00000+0 -81611-2 0  9997
2 69956  53.1593 287.4639 0001222  58.7269  83.8936 15.89556376  2415
STARLINK-37919          
1 69957U 26157Q   26197.83335647 -.02126086  00000+0 -82271-2 0  9999
2 69957  53.1593 287.4613 0001159  63.3030  80.6407 15.89518948  2416
STARLINK-37964          
1 69958U 26157R   26197.83335647 -.02111727  00000+0 -80307-2 0  9994
2 69958  53.1594 287.4515 0001162  59.1364  89.4217 15.89834824  2416
STARLINK-37907          
1 69959U 26157S   26197.83335647 -.02098595  00000+0 -78152-2 0  9997
2 69959  53.1593 287.4377 0001110  54.3353 100.9214 15.90221754  2410
STARLINK-37901          
1 69960U 26157T   26197.83335647 -.02561305  17171-2 -81539-2 0  9996
2 69960  53.1592 287.4277 0001053  52.4298 107.6558 15.90673497  2413
STARLINK-37910          
1 69961U 26157U   26197.83335647 -.02393810  15082-2 -75889-2 0  9991
2 69961  53.1591 287.4131 0001177  62.2262 104.8976 15.90742905  2413
STARLINK-37925          
1 69962U 26157V   26197.83335647 -.02401724  15183-2 -76007-2 0  9991
2 69962  53.1592 287.4094 0001198  57.3688 111.5184 15.90777756  2411
STARLINK-37931          
1 69963U 26157W   26197.83335647 -.02434749  15591-2 -76963-2 0  9999
2 69963  53.1590 287.4023 0001163  60.6773 111.6655 15.90803108  2411
STARLINK-37914          
1 69964U 26157X   26197.83335647 -.02558477  17281-2 -78208-2 0  9997
2 69964  53.1592 287.3766 0001059  61.2535 123.3814 15.91463718  2422
STARLINK-37840          
1 69965U 26157Y   26197.83335647 -.01700809  80838-3 -49466-2 0  9998
2 69965  53.1592 287.3651 0000831  76.9186 113.1137 15.92329862  2425
STARLINK-37894          
1 69966U 26157Z   26197.83335647 -.02442373  15833-2 -73755-2 0  9999
2 69966  53.1591 287.3606 0000948  66.5621 125.6668 15.91692127  2426
STARLINK-37875          
1 69967U 26157AA  26197.83335647 -.02443413  15913-2 -72315-2 0  9996
2 69967  53.1591 287.3462 0001148  68.2807 130.7764 15.92080250  2428
STARLINK-36218          
1 69968U 26157AB  26197.83335647 -.02384011  15270-2 -68467-2 0  9994
2 69968  53.1587 287.3311 0001120  66.1853 139.9961 15.92652946  2062
STARLINK-37921          
1 69969U 26157AC  26197.83335647 -.02402022  15591-2 -66908-2 0  9992
2 69969  53.1588 287.3039 0001173  80.0304 139.1040 15.93236350  2423
STARLINK-37896          
1 69970U 26157AD  26197.83335647 -.02419318  15807-2 -67432-2 0  9993
2 69970  53.1587 287.3009 0001088  77.3853 143.1687 15.93225973  2425
STARLINK-37922          
1 69971U 26157AE  26197.83335647 -.02391164  15456-2 -66586-2 0  9991
2 69971  53.1587 287.2989 0001097  70.3718 151.1090 15.93241317  2422
CHUANG XIN 26 (CX-26)   
1 69972U 26158A   26194.51442212 -.00000212  00000+0 -21871-4 0  9997
2 69972  49.9860 287.5119 0004887 294.2352  65.8050 14.25122238   462
