OBJECT_NAME,OBJECT_ID,EPOCH,MEAN_MOTION,ECCENTRICITY,INCLINATION,RA_OF_ASC_NODE,ARG_OF_PERICENTER,MEAN_ANOMALY,EPHEMERIS_TYPE,CLASSIFICATION_TYPE,NORAD_CAT_ID,ELEMENT_SET_NO,REV_AT_EPOCH,BSTAR,MEAN_MOTION_DOT,MEAN_MOTION_DDOT
STARLINK-37886,2026-157A,2026-07-16T20:00:01.999008,15.85506185,.0001018,53.1598,287.6393,36.8568,21.4584,0,U,69943,999,241,-.10035E-1,-.2120695E-1,0
STARLINK-37937,2026-157B,2026-07-16T20:00:01.999008,15.85312413,.0001207,53.1597,287.6359,57.5533,2.2977,0,U,69944,999,241,-.3109E-2,-.700046E-2,0
STARLINK-37903,2026-157C,2026-07-16T20:00:01.999008,15.86083364,.0001072,53.1597,287.6155,39.8588,29.8489,0,U,69945,999,241,-.97354E-2,-.2117432E-1,0
STARLINK-37905,2026-157D,2026-07-16T20:00:01.999008,15.86893344,.0001092,53.1596,287.5826,46.1034,39.3829,0,U,69946,999,241,-.93171E-2,-.2110772E-1,0
STARLINK-37904,2026-157E,2026-07-16T20:00:01.999008,15.87093763,.0001069,53.1596,287.5767,43.1750,45.1900,0,U,69947,999,241,-.91754E-2,-.2101167E-1,0
STARLINK-37891,2026-157F,2026-07-16T20:00:01.999008,15.87178008,.0001033,53.1595,287.5684,50.7037,41.6524,0,U,69948,999,241,-.92121E-2,-.2115904E-1,0
STARLINK-37923,2026-157G,2026-07-16T20:00:01.999008,15.87851698,.0001155,53.1595,287.5398,49.6456,56.5032,0,U,69949,999,241,-.89789E-2,-.2130892E-1,0
STARLINK-37895,2026-157H,2026-07-16T20:00:01.999008,15.88122742,.0001191,53.1595,287.5272,56.3136,55.8255,0,U,69950,999,241,-.88436E-2,-.2128192E-1,0
STARLINK-37841,2026-157J,2026-07-16T20:00:01.999008,15.88562514,.0001138,53.1594,287.5101,54.2824,66.1559,0,U,69951,999,241,-.86756E-2,-.2133775E-1,0
STARLINK-37899,2026-157K,2026-07-16T20:00:01.999008,15.89001542,.0001158,53.1592,287.4910,60.1329,69.4483,0,U,69952,999,241,-.84904E-2,-.2135217E-1,0
STARLINK-37900,2026-157L,2026-07-16T20:00:01.999008,15.89157475,.0001152,53.1594,287.4854,56.9787,75.3266,0,U,69953,999,241,-.8375E-2,-.2124796E-1,0
STARLINK-37882,2026-157M,2026-07-16T20:00:01.999008,15.89587942,.000125,53.1594,287.4688,52.0722,88.1176,0,U,69954,999,241,-.81234E-2,-.2109635E-1,0
STARLINK-37928,2026-157N,2026-07-16T20:00:01.999008,15.89503754,.0001227,53.1593,287.4659,57.6013,84.1308,0,U,69955,999,241,-.82685E-2,-.2133891E-1,0
STARLINK-37824,2026-157P,2026-07-16T20:00:01.999008,15.89556376,.0001222,53.1593,287.4639,58.7269,83.8936,0,U,69956,999,241,-.81611E-2,-.2115026E-1,0
STARLINK-37919,2026-157Q,2026-07-16T20:00:01.999008,15.89518948,.0001159,53.1593,287.4613,63.3030,80.6407,0,U,69957,999,241,-.82271E-2,-.2126086E-1,0
STARLINK-37964,2026-157R,2026-07-16T20:00:01.999008,15.89834824,.0001162,53.1594,287.4515,59.1364,89.4217,0,U,69958,999,241,-.80307E-2,-.2111727E-1,0
STARLINK-37907,2026-157S,2026-07-16T20:00:01.999008,15.90221754,.000111,53.1593,287.4377,54.3353,100.9214,0,U,69959,999,241,-.78152E-2,-.2098595E-1,0
STARLINK-37901,2026-157T,2026-07-16T20:00:01.999008,15.90673497,.0001053,53.1592,287.4277,52.4298,107.6558,0,U,69960,999,241,-.81539E-2,-.2561305E-1,.17171E-2
STARLINK-37910,2026-157U,2026-07-16T20:00:01.999008,15.90742905,.0001177,53.1591,287.4131,62.2262,104.8976,0,U,69961,999,241,-.75889E-2,-.239381E-1,.15082E-2
STARLINK-37925,2026-157V,2026-07-16T20:00:01.999008,15.90777756,.0001198,53.1592,287.4094,57.3688,111.5184,0,U,69962,999,241,-.76007E-2,-.2401724E-1,.15183E-2
STARLINK-37931,2026-157W,2026-07-16T20:00:01.999008,15.90803108,.0001163,53.1590,287.4023,60.6773,111.6655,0,U,69963,999,241,-.76963E-2,-.2434749E-1,.15591E-2
STARLINK-37914,2026-157X,2026-07-16T20:00:01.999008,15.91463718,.0001059,53.1592,287.3766,61.2535,123.3814,0,U,69964,999,242,-.78208E-2,-.2558477E-1,.17281E-2
STARLINK-37840,2026-157Y,2026-07-16T20:00:01.999008,15.92329862,.0000831,53.1592,287.3651,76.9186,113.1137,0,U,69965,999,242,-.49466E-2,-.1700809E-1,.80838E-3
STARLINK-37894,2026-157Z,2026-07-16T20:00:01.999008,15.91692127,.0000948,53.1591,287.3606,66.5621,125.6668,0,U,69966,999,242,-.73755E-2,-.2442373E-1,.15833E-2
STARLINK-37875,2026-157AA,2026-07-16T20:00:01.999008,15.92080250,.0001148,53.1591,287.3462,68.2807,130.7764,0,U,69967,999,242,-.72315E-2,-.2443413E-1,.15913E-2
STARLINK-36218,2026-157AB,2026-07-16T20:00:01.999008,15.92652946,.000112,53.1587,287.3311,66.1853,139.9961,0,U,69968,999,206,-.68467E-2,-.2384011E-1,.1527E-2
STARLINK-37921,2026-157AC,2026-07-16T20:00:01.999008,15.93236350,.0001173,53.1588,287.3039,80.0304,139.1040,0,U,69969,999,242,-.66908E-2,-.2402022E-1,.15591E-2
STARLINK-37896,2026-157AD,2026-07-16T20:00:01.999008,15.93225973,.0001088,53.1587,287.3009,77.3853,143.1687,0,U,69970,999,242,-.67432E-2,-.2419318E-1,.15807E-2
STARLINK-37922,2026-157AE,2026-07-16T20:00:01.999008,15.93241317,.0001097,53.1587,287.2989,70.3718,151.1090,0,U,69971,999,242,-.66586E-2,-.2391164E-1,.15456E-2
CHUANG XIN 26 (CX-26),2026-158A,2026-07-13T12:20:46.071168,14.25122238,.0004887,49.9860,287.5119,294.2352,65.8050,0,U,69972,999,46,-.21871415E-4,-.212E-5,0
